FLOCK 4G-30             
1 62679U 25009BY  26068.70871344  .00013147  00000+0  49475-3 0  9999
2 62679  97.3969 150.6012 0003795 342.4152  17.6955 15.27244548121341
STARLINK-34140          
1 64085U 25107X   26068.38701486  .00022605  00000+0  82799-3 0  9999
2 64085  42.9957 203.2944 0000945 152.0067 208.0836 15.27598758 46053
